H1 CPF 01  gfz 2021 11 03 01  8071 tandemx   
H2 1003001  6202 36605    2021 11 03 00 59 42 2021 11 08 00 00 42   120 1 1  0 0 0
H9
10 0 59521  36702.000000  0   -1981675.672   2032380.667  -6283613.467
10 0 59521  36822.000000  0   -2283747.288   2797138.212  -5873607.997
10 0 59521  36942.000000  0   -2533200.861   3518200.253  -5360986.636
10 0 59521  37062.000000  0   -2726550.271   4182048.175  -4754616.525
10 0 59521  37182.000000  0   -2861500.743   4776077.059  -4065015.296
10 0 59521  37302.000000  0   -2936975.325   5288840.329  -3304177.212
10 0 59521  37422.000000  0   -2953116.433   5710276.467  -2485372.305
10 0 59521  37542.000000  0   -2911263.803   6031916.350  -1622920.782
10 0 59521  37662.000000  0   -2813906.792   6247063.408   -731942.149
10 0 59521  37782.000000  0   -2664612.722   6350939.425    171912.223
10 0 59521  37902.000000  0   -2467934.543   6340797.728   1072739.377
10 0 59521  38022.000000  0   -2229295.470   6215994.299   1954676.434
10 0 59521  38142.000000  0   -1954854.697   5978013.059   2802189.907
10 0 59521  38262.000000  0   -1651359.861   5630448.812   3600356.642
10 0 59521  38382.000000  0   -1325989.894   5178948.779   4335131.884
10 0 59521  38502.000000  0    -986191.838   4631113.601   4993600.209
10 0 59521  38622.000000  0    -639513.630   3996359.606   5564202.952
10 0 59521  38742.000000  0    -293440.078   3285748.476   6036937.680
10 0 59521  38862.000000  0      44765.382   2511785.980   6403529.412
10 0 59521  38982.000000  0     368210.380   1688195.951   6657568.857
10 0 59521  39102.000000  0     670512.027    829673.123   6794619.073
10 0 59521  39222.000000  0     945921.119    -48380.797   6812287.119
10 0 59521  39342.000000  0    1189430.319   -930132.146   6710263.653
10 0 59521  39462.000000  0    1396864.878  -1799600.599   6490328.803
10 0 59521  39582.000000  0    1564954.488  -2640948.306   6156323.432
10 0 59521  39702.000000  0    1691385.064  -3438769.723   5714086.452
10 0 59521  39822.000000  0    1774829.256  -4178376.554   5171357.499
10 0 59521  39942.000000  0    1814955.904  -4846071.320   4537646.630
10 0 59521  40062.000000  0    1812418.976  -5429407.462   3824074.415
10 0 59521  40182.000000  0    1768825.008  -5917431.467   3043179.740
10 0 59521  40302.000000  0    1686678.249  -6300896.900   2208698.745
10 0 59521  40422.000000  0    1569307.039  -6572447.643   1335321.731
10 0 59521  40542.000000  0    1420772.119  -6726767.105    438430.291
10 0 59521  40662.000000  0    1245758.396  -6760687.906   -466180.618
10 0 59521  40782.000000  0    1049452.203  -6673259.406  -1362591.527
10 0 59521  40902.000000  0     837408.399  -6465766.085  -2235048.722
10 0 59521  41022.000000  0     615411.264  -6141701.337  -3068247.279
10 0 59521  41142.000000  0     389333.758  -5706699.172  -3847603.689
10 0 59521  41262.000000  0     164996.765  -5168424.222  -4559512.517
10 0 59521  41382.000000  0     -51967.913  -4536423.319  -5191580.554
10 0 59521  41502.000000  0    -256246.925  -3821944.761  -5732835.745
10 0 59521  41622.000000  0    -442964.592  -3037728.394  -6173908.454
10 0 59521  41742.000000  0    -607789.424  -2197772.027  -6507182.515
10 0 59521  41862.000000  0    -747026.476  -1317078.940  -6726915.163
10 0 59521  41982.000000  0    -857693.975   -411391.632  -6829326.128
10 0 59521  42102.000000  0    -937582.870    503085.662  -6812655.575
10 0 59521  42222.000000  0    -985298.750   1409969.760  -6677189.893
10 0 59521  42342.000000  0   -1000285.762   2292984.431  -6425257.285
10 0 59521  42462.000000  0    -982832.004   3136245.194  -6061192.738
10 0 59521  42582.000000  0    -934056.406   3924541.572  -5591272.631
10 0 59521  42702.000000  0    -855877.058   4643610.653  -5023616.777
10 0 59521  42822.000000  0    -750961.607   5280398.447  -4368060.028
10 0 59521  42942.000000  0    -622660.603   5823304.242  -3635992.087
10 0 59521  43062.000000  0    -474924.325   6262401.422  -2840167.730
10 0 59521  43182.000000  0    -312204.650   6589630.711  -1994490.601
10 0 59521  43302.000000  0    -139344.314   6798960.933  -1113772.202
10 0 59521  43422.000000  0      38544.274   6886512.066   -213470.752
10 0 59521  43542.000000  0     216208.103   6850637.050    690585.217
10 0 59521  43662.000000  0     388386.935   6691959.426   1582483.369
10 0 59521  43782.000000  0     549946.706   6413363.931   2446517.312
10 0 59521  43902.000000  0     696009.139   6019940.839   3267470.892
10 0 59521  44022.000000  0     822075.321   5518888.041   4030892.625
10 0 59521  44142.000000  0     924142.226   4919373.529   4723355.197
10 0 59521  44262.000000  0     998804.415   4232354.949   5332697.340
10 0 59521  44382.000000  0    1043342.081   3470367.468   5848232.174
10 0 59521  44502.000000  0    1055793.933   2647287.771   6260930.484
10 0 59521  44622.000000  0    1035010.844   1778074.521   6563573.761
10 0 59521  44742.000000  0     980691.166    878491.744   6750874.680
10 0 59521  44862.000000  0     893396.872    -35179.299   6819562.983
10 0 59521  44982.000000  0     774550.133   -946433.426   6768439.310
10 0 59521  45102.000000  0     626410.075  -1838839.662   6598396.051
10 0 59521  45222.000000  0     452029.982  -2696337.322   6312402.967
10 0 59521  45342.000000  0     255195.716  -3503526.821   5915458.370
10 0 59521  45462.000000  0      40346.906  -4245947.369   5414504.046
10 0 59521  45582.000000  0    -187517.382  -4910337.928   4818310.351
10 0 59521  45702.000000  0    -422947.479  -5484881.106   4137331.047
10 0 59521  45822.000000  0    -660165.947  -5959424.289   3383524.286
10 0 59521  45942.000000  0    -893200.972  -6325668.744   2570143.682
10 0 59521  46062.000000  0   -1116025.943  -6577324.028   1711504.049
10 0 59521  46182.000000  0   -1322702.951  -6710225.300    822726.545
10 0 59521  46302.000000  0   -1507528.294  -6722408.433    -80535.702
10 0 59521  46422.000000  0   -1665172.475  -6614138.899   -982382.475
10 0 59521  46542.000000  0   -1790812.784  -6387896.088  -1866955.033
10 0 59521  46662.000000  0   -1880255.556  -6048313.810  -2718722.532
10 0 59521  46782.000000  0   -1930045.219  -5602078.264  -3522760.859
10 0 59521  46902.000000  0   -1937556.933  -5057785.529  -4265017.244
10 0 59521  47022.000000  0   -1901070.476  -4425763.832  -4932554.243
10 0 59521  47142.000000  0   -1819824.473  -3717866.825  -5513769.418
10 0 59521  47262.000000  0   -1694050.201  -2947242.982  -5998588.747
10 0 59521  47382.000000  0   -1524984.233  -2128085.363  -6378631.564
10 0 59521  47502.000000  0   -1314859.859  -1275366.917  -6647343.813
10 0 59521  47622.000000  0   -1066878.595   -404567.881  -6800099.691
10 0 59521  47742.000000  0    -785162.162    468601.102  -6834272.349
10 0 59521  47862.000000  0    -474684.410   1328475.485  -6749273.561
10 0 59521  47982.000000  0    -141185.727   2159710.375  -6546562.532
10 0 59521  48102.000000  0     208929.009   2947547.470  -6229624.721
10 0 59521  48222.000000  0     568710.004   3678073.963  -5803919.935
10 0 59521  48342.000000  0     930796.385   4338467.139  -5276796.797
10 0 59521  48462.000000  0    1287561.604   4917221.405  -4657377.589
10 0 59521  48582.000000  0    1631269.539   5404355.699  -3956411.831
10 0 59521  48702.000000  0    1954237.847   5791594.515  -3186098.692
10 0 59521  48822.000000  0    2249004.850   6072519.245  -2359882.087
10 0 59521  48942.000000  0    2508496.952   6242686.821  -1492219.789
10 0 59521  49062.000000  0    2726192.107   6299710.900   -598329.432
10 0 59521  49182.000000  0    2896274.808   6243301.845    306083.196
10 0 59521  49302.000000  0    3013778.509   6075264.356   1205106.698
10 0 59521  49422.000000  0    3074711.943   5799453.856   2082911.659
10 0 59521  49542.000000  0    3076165.957   5421691.758   2924037.831
10 0 59521  49662.000000  0    3016398.421   4949641.183   3713674.376
10 0 59521  49782.000000  0    2894895.426   4392647.047   4437926.734
10 0 59521  49902.000000  0    2712404.956   3761543.724   5084066.572
10 0 59521  50022.000000  0    2470942.326   3068434.186   5640754.536
10 0 59521  50142.000000  0    2173771.966   2326451.161   6098234.323
10 0 59521  50262.000000  0    1825364.054   1549503.487   6448499.720
10 0 59521  50382.000000  0    1431325.299    752010.386   6685429.156
10 0 59521  50502.000000  0     998306.678    -51367.722   6804885.249
10 0 59521  50622.000000  0     533890.584   -845997.296   6804783.174
10 0 59521  50742.000000  0      46457.764  -1617538.585   6685125.944
10 0 59521  50862.000000  0    -454964.165  -2352204.296   6448003.910
10 0 59521  50982.000000  0    -960867.670  -3037006.477   6097559.607
10 0 59521  51102.000000  0   -1461443.248  -3659986.560   5639917.975
10 0 59521  51222.000000  0   -1946767.337  -4210426.177   5083086.376
10 0 59521  51342.000000  0   -2406999.605  -4679037.279   4436822.714
10 0 59521  51462.000000  0   -2832584.805  -5058126.903   3712470.022
10 0 59521  51582.000000  0   -3214452.926  -5341731.423   2922758.928
10 0 59521  51702.000000  0   -3544212.472  -5525716.073   2081583.068
10 0 59521  51822.000000  0   -3814333.828  -5607839.364   1203752.163
10 0 59521  51942.000000  0   -4018318.490  -5587779.869    304725.805
10 0 59521  52062.000000  0   -4150849.236  -5467124.231   -599666.134
10 0 59521  52182.000000  0   -4207917.475  -5249316.772  -1493511.350
10 0 59521  52302.000000  0   -4186923.697  -4939570.605  -2361104.477
10 0 59521  52422.000000  0   -4086748.695  -4544743.129  -3187230.344
10 0 59521  52542.000000  0   -3907793.913  -4073180.271  -3957434.711
10 0 59521  52662.000000  0   -3651990.866  -3534534.566  -4658277.017
10 0 59521  52782.000000  0   -3322780.425  -2939561.894  -5277561.407
10 0 59521  52902.000000  0   -2925062.573  -2299901.346  -5804541.828
10 0 59521  53022.000000  0   -2465118.921  -1627844.455  -6230098.776
10 0 59521  53142.000000  0   -1950509.091   -936097.697  -6546886.805
99
